[{"OBJECT_NAME":"STARLINK-32332","OBJECT_ID":"2025-003D","EPOCH":"2026-03-08T23:49:39.789696","MEAN_MOTION":15.27604214,"ECCENTRICITY":0.0002782,"INCLINATION":43.0049,"RA_OF_ASC_NODE":293.023,"ARG_OF_PERICENTER":264.0944,"MEAN_ANOMALY":95.959,"EPHEMERIS_TYPE":0,"CLASSIFICATION_TYPE":"U","NORAD_CAT_ID":62490,"ELEMENT_SET_NO":999,"REV_AT_EPOCH":6654,"BSTAR":0.0012452164,"MEAN_MOTION_DOT":0.0003419,"MEAN_MOTION_DDOT":0},{"OBJECT_NAME":"OBJECT N","OBJECT_ID":"2019-093N","EPOCH":"2026-03-09T21:41:56.087232","MEAN_MOTION":15.29897693,"ECCENTRICITY":0.0006278,"INCLINATION":98.0505,"RA_OF_ASC_NODE":226.9456,"ARG_OF_PERICENTER":33.3806,"MEAN_ANOMALY":326.7828,"EPHEMERIS_TYPE":0,"CLASSIFICATION_TYPE":"U","NORAD_CAT_ID":44891,"ELEMENT_SET_NO":999,"REV_AT_EPOCH":33957,"BSTAR":0.0010567776,"MEAN_MOTION_DOT":0.00030617,"MEAN_MOTION_DDOT":0}]
